[{"OBJECT_NAME":"GAOFEN DUOMO (GFDM)","OBJECT_ID":"2020-042A","EPOCH":"2026-03-09T22:46:55.447968","MEAN_MOTION":14.76842284,"ECCENTRICITY":0.00121367,"INCLINATION":97.7864,"RA_OF_ASC_NODE":132.3939,"ARG_OF_PERICENTER":38.3075,"MEAN_ANOMALY":321.8996,"EPHEMERIS_TYPE":0,"CLASSIFICATION_TYPE":"U","NORAD_CAT_ID":45856,"ELEMENT_SET_NO":999,"REV_AT_EPOCH":30636,"BSTAR":0.00021262668,"MEAN_MOTION_DOT":1.445e-5,"MEAN_MOTION_DDOT":0},{"OBJECT_NAME":"SCOUT B DEB","OBJECT_ID":"1968-066H","EPOCH":"2026-03-09T02:52:43.884768","MEAN_MOTION":14.16036395,"ECCENTRICITY":0.03264308,"INCLINATION":80.6686,"RA_OF_ASC_NODE":326.9632,"ARG_OF_PERICENTER":117.7509,"MEAN_ANOMALY":245.7173,"EPHEMERIS_TYPE":0,"CLASSIFICATION_TYPE":"U","NORAD_CAT_ID":3392,"ELEMENT_SET_NO":999,"REV_AT_EPOCH":71919,"BSTAR":0.0053308873,"MEAN_MOTION_DOT":0.00017758,"MEAN_MOTION_DDOT":0}]
